NORAD_CAT_ID,OBJECT_NAME,OBJECT_TYPE,EPOCH,MEAN_MOTION,ECCENTRICITY,INCLINATION,RA_OF_ASC_NODE,ARG_OF_PERICENTER,MEAN_ANOMALY,BSTAR,MEAN_MOTION_DOT,MEAN_MOTION_DDOT,TLE_LINE0,TLE_LINE1,TLE_LINE2,SEMIMAJOR_AXIS,PERIOD,APOGEE,PERIGEE,DECAYED
52599.0,STARLINK-4024,PAYLOAD,2022-12-10 00:58:15,15.08818406,0.0003184,53.2177,201.7067,45.4735,314.6517,-0.00011544,-2.125e-05,0.0,0 STARLINK-4024,1 52599U 22052B   22344.04045689 -.00002125  00000-0 -11544-3 0  9992,2 52599  53.2177 201.7067 0003184  45.4735 314.6517 15.08818406 32232,6917.946,95.439,542.014,537.609,0.0
52599.0,STARLINK-4024,PAYLOAD,2022-12-10 20:02:53,15.08829753,0.0003502,53.2176,198.1389,41.2242,318.9014,-0.00014667,-2.622e-05,0.0,0 STARLINK-4024,1 52599U 22052B   22344.83533823 -.00002622  00000-0 -14667-3 0  9992,2 52599  53.2176 198.1389 0003502  41.2242 318.9014 15.08829753 32357,6917.9119999999975,95.438,542.1990000000002,537.354,0.0
52599.0,STARLINK-4024,PAYLOAD,2022-12-11 13:32:08,15.08815634,0.0003392,53.2175,194.8676,40.7719,319.3526,0.0001703,2.421e-05,0.0,0 STARLINK-4024,1 52599U 22052B   22345.56398275  .00002421  00000-0  17030-3 0  9995,2 52599  53.2175 194.8676 0003392  40.7719 319.3526 15.08815634 32893,6917.955,95.439,542.1659999999998,537.4730000000002,0.0
52599.0,STARLINK-4024,PAYLOAD,2022-12-11 19:53:40,15.08821231,0.0003462,53.2175,193.6786,41.4501,318.6753,0.00019961,2.888e-05,0.0,0 STARLINK-4024,1 52599U 22052B   22345.82894375  .00002888  00000-0  19961-3 0  9998,2 52599  53.2175 193.6786 0003462  41.4501 318.6753 15.08821231 32936,6917.938,95.439,542.198,537.408,0.0
52599.0,STARLINK-4024,PAYLOAD,2022-12-12 00:39:50,15.08824121,0.0003463,53.2174,192.7863,41.8928,318.2328,0.00022533,3.298e-05,0.0,0 STARLINK-4024,1 52599U 22052B   22346.02766504  .00003298  00000-0  22533-3 0  9998,2 52599  53.2174 192.7863 0003463  41.8928 318.2328 15.08824121 32530,6917.929,95.439,542.19,537.398,0.0
52599.0,STARLINK-4024,PAYLOAD,2022-12-12 22:55:13,15.08838906,0.0003442,53.2173,188.6233,44.0959,316.0307,0.00020382,2.957e-05,0.0,0 STARLINK-4024,1 52599U 22052B   22346.95502295  .00002957  00000-0  20382-3 0  9996,2 52599  53.2173 188.6233 0003442  44.0959 316.0307 15.08838906 32674,6917.884,95.438,542.13,537.368,0.0
52599.0,STARLINK-4024,PAYLOAD,2022-12-13 13:13:41,15.08849068,0.0003476,53.2158,185.947,45.1811,314.9464,0.00026626,3.953e-05,0.0,0 STARLINK-4024,1 52599U 22052B   22347.55117947  .00003953  00000-0  26626-3 0  9993,2 52599  53.2158 185.9470 0003476  45.1811 314.9464 15.08849068 33196,6917.853,95.437,542.122,537.313,0.0
52599.0,STARLINK-4024,PAYLOAD,2022-12-13 19:35:14,15.08852641,0.0003406,53.2159,184.7571,45.8813,314.2459,0.00023959,3.528e-05,0.0,0 STARLINK-4024,1 52599U 22052B   22347.81613627  .00003528  00000-0  23959-3 0  9992,2 52599  53.2159 184.7571 0003406  45.8813 314.2459 15.08852641 33231,6917.842,95.437,542.063,537.351,0.0
52599.0,STARLINK-4024,PAYLOAD,2022-12-14 00:21:23,15.08858064,0.0003602,53.2166,183.8655,46.9394,313.1899,0.00030526,4.576e-05,0.0,0 STARLINK-4024,1 52599U 22052B   22348.01485300  .00004576  00000-0  30526-3 0  9992,2 52599  53.2166 183.8655 0003602  46.9394 313.1899 15.08858064 32832,6917.825,95.436,542.182,537.198,0.0
52599.0,STARLINK-4024,PAYLOAD,2022-12-14 13:04:27,15.08858852,0.0003731,53.2163,181.4872,47.8514,312.2794,0.00022879,3.356e-05,0.0,0 STARLINK-4024,1 52599U 22052B   22348.54476847  .00003356  00000-0  22879-3 0  9993,2 52599  53.2163 181.4872 0003731  47.8514 312.2794 15.08858852 33347,6917.823,95.436,542.269,537.107,0.0
52599.0,STARLINK-4024,PAYLOAD,2022-12-14 19:26:00,15.08853027,0.0003718,53.2167,180.2973,48.4257,311.7054,6.2584e-05,7.08e-06,0.0,0 STARLINK-4024,1 52599U 22052B   22348.80972823  .00000708  00000-0  62584-4 0  9993,2 52599  53.2167 180.2973 0003718  48.4257 311.7054 15.08853027 33382,6917.840999999999,95.437,542.278,537.134,0.0
52599.0,STARLINK-4024,PAYLOAD,2022-12-15 12:55:14,15.0885514,0.0003653,53.2164,177.0262,48.559,311.5716,9.4965e-05,1.223e-05,0.0,0 STARLINK-4024,1 52599U 22052B   22349.53836157  .00001223  00000-0  94965-4 0  9994,2 52599  53.2164 177.0262 0003653  48.5590 311.5716 15.08855140 33496,6917.834,95.437,542.226,537.172,0.0
52599.0,STARLINK-4024,PAYLOAD,2022-12-15 19:16:46,15.08852536,0.0003675,53.2167,175.8375,48.8057,311.3252,1.726e-05,-1.4e-07,0.0,0 STARLINK-4024,1 52599U 22052B   22349.80332087 -.00000014  00000-0  17260-4 0  9998,2 52599  53.2167 175.8375 0003675  48.8057 311.3252 15.08852536 33539,6917.842,95.437,542.249,537.165,0.0
52599.0,STARLINK-4024,PAYLOAD,2022-12-15 22:27:33,15.08843925,0.0003613,53.2166,175.2421,49.3064,310.8241,-0.00010739,-1.998e-05,0.0,0 STARLINK-4024,1 52599U 22052B   22349.93580404 -.00001998  00000-0 -10739-3 0  9996,2 52599  53.2166 175.2421 0003613  49.3064 310.8241 15.08843925 33129,6917.868,95.437,542.2330000000002,537.234,0.0
52599.0,STARLINK-4024,PAYLOAD,2022-12-16 12:46:01,15.08842303,0.0003563999999999,53.2165,172.5655,50.0784,310.0521,-5.555e-05,-1.173e-05,0.0,0 STARLINK-4024,1 52599U 22052B   22350.53196317 -.00001173  00000-0 -55550-4 0  9996,2 52599  53.2165 172.5655 0003564  50.0784 310.0521 15.08842303 33649,6917.873000000001,95.437,542.2040000000002,537.273,0.0
52599.0,STARLINK-4024,PAYLOAD,2022-12-16 20:42:57,15.08843044,0.0003576,53.2165,171.0789,50.3547,309.776,4.48e-05,4.24e-06,0.0,0 STARLINK-4024,1 52599U 22052B   22350.86316265  .00000424  00000-0  44800-4 0  9990,2 52599  53.2165 171.0789 0003576  50.3547 309.7760 15.08843044 33692,6917.871,95.437,542.21,537.262,0.0
52599.0,STARLINK-4024,PAYLOAD,2022-12-16 23:53:43,15.08843882,0.000358,53.2165,170.4841,51.1362,308.9949,5.166e-05,5.33e-06,0.0,0 STARLINK-4024,1 52599U 22052B   22350.99564182  .00000533  00000-0  51660-4 0  9990,2 52599  53.2165 170.4841 0003580  51.1362 308.9949 15.08843882 33288,6917.869000000002,95.437,542.21,537.257,0.0
52599.0,STARLINK-4024,PAYLOAD,2022-12-17 12:36:48,15.08847201,0.000361,53.2165,168.1051,51.6237,308.5079,9.3982e-05,1.208e-05,0.0,0 STARLINK-4024,1 52599U 22052B   22351.52555884  .00001208  00000-0  93982-4 0  9992,2 52599  53.2165 168.1051 0003610  51.6237 308.5079 15.08847201 33790,6917.858,95.437,542.221,537.226,0.0
52599.0,STARLINK-4024,PAYLOAD,2022-12-17 18:58:20,15.08849247,0.0003608,53.2166,166.9157,51.8334,308.2983,0.00017348,2.474e-05,0.0,0 STARLINK-4024,1 52599U 22052B   22351.79051749  .00002474  00000-0  17348-3 0  9999,2 52599  53.2166 166.9157 0003608  51.8334 308.2983 15.08849247 33839,6917.852,95.437,542.2130000000002,537.221,0.0
52599.0,STARLINK-4024,PAYLOAD,2022-12-18 04:30:39,15.08848533,0.0003607,53.2166,165.1314,53.0681,307.0642,0.00016711,2.373e-05,0.0,0 STARLINK-4024,1 52599U 22052B   22352.18795664  .00002373  00000-0  16711-3 0  9995,2 52599  53.2166 165.1314 0003607  53.0681 307.0642 15.08848533 33468,6917.854,95.437,542.215,537.224,0.0
52599.0,STARLINK-4024,PAYLOAD,2022-12-18 12:27:35,15.08837081,0.0003593,53.2169,163.6447,53.3633,306.769,-6.6235e-05,-1.343e-05,0.0,0 STARLINK-4024,1 52599U 22052B   22352.51916020 -.00001343  00000-0 -66235-4 0  9998,2 52599  53.2169 163.6447 0003593  53.3633 306.7690 15.08837081 33516,6917.889,95.438,542.24,537.269,0.0
52599.0,STARLINK-4024,PAYLOAD,2022-12-18 20:24:30,15.0884475,0.000359,53.2177,162.1585,56.8818,303.2519,-0.00021423,-3.698e-05,0.0,0 STARLINK-4024,1 52599U 22052B   22352.85035713 -.00003698  00000-0 -21423-3 0  9990,2 52599  53.2177 162.1585 0003590  56.8818 303.2519 15.08844750 33997,6917.866,95.437,542.214,537.247,0.0
52599.0,STARLINK-4024,PAYLOAD,2022-12-18 23:35:17,15.08837055,0.0003546999999999,53.2179,161.5631,52.4615,307.6699,5.9625e-05,6.6e-06,0.0,0 STARLINK-4024,1 52599U 22052B   22352.98284512  .00000660  00000-0  59625-4 0  9997,2 52599  53.2179 161.5631 0003547  52.4615 307.6699 15.08837055 34014,6917.889,95.438,542.2080000000002,537.3009999999998,0.0
52599.0,STARLINK-4024,PAYLOAD,2022-12-19 20:15:17,15.08847835,0.0003592,53.218,157.6974,55.2142,304.9188,8.754e-05,1.105e-05,0.0,0 STARLINK-4024,1 52599U 22052B   22353.84395567  .00001105  00000-0  87540-4 0  9998,2 52599  53.2180 157.6974 0003592  55.2142 304.9188 15.08847835 34142,6917.856,95.437,542.206,537.237,0.0
52599.0,STARLINK-4024,PAYLOAD,2022-12-20 04:12:12,15.08853823,0.0003602,53.2181,156.2106,55.6478,304.4855,9.9245e-05,1.292e-05,0.0,0 STARLINK-4024,1 52599U 22052B   22354.17515029  .00001292  00000-0  99245-4 0  9994,2 52599  53.2181 156.2106 0003602  55.6478 304.4855 15.08853823 34198,6917.8380000000025,95.437,542.195,537.211,0.0
52599.0,STARLINK-4024,PAYLOAD,2022-12-20 20:06:04,15.08840511,0.000356,53.2183,153.237,56.5386,303.5947,9.0097e-05,1.145e-05,0.0,0 STARLINK-4024,1 52599U 22052B   22354.83755754  .00001145  00000-0  90097-4 0  9991,2 52599  53.2183 153.2370 0003560  56.5386 303.5947 15.08840511 33866,6917.879,95.438,542.207,537.281,0.0
52599.0,STARLINK-4024,PAYLOAD,2022-12-21 10:24:33,15.08836796,0.0003569,53.2183,150.5601,57.7178,302.4159,2.0714e-05,4.1e-07,0.0,0 STARLINK-4024,1 52599U 22052B   22355.43372180  .00000041  00000-0  20714-4 0  9999,2 52599  53.2183 150.5601 0003569  57.7178 302.4159 15.08836796 34385,6917.89,95.438,542.224,537.286,0.0
52599.0,STARLINK-4024,PAYLOAD,2022-12-22 03:53:47,15.08846421,0.0003549,53.2183,147.2895,57.9085,302.2251,1.856e-06,-2.59e-06,0.0,0 STARLINK-4024,1 52599U 22052B   22356.16235502 -.00000259  00000-0  18560-5 0  9995,2 52599  53.2183 147.2895 0003549  57.9085 302.2251 15.08846421 34062,6917.861,95.437,542.181,537.271,0.0
52599.0,STARLINK-4024,PAYLOAD,2022-12-22 16:36:53,15.088352800000004,0.0003384,53.2172,144.9114,57.0881,303.0436,1.4493e-06,-2.66e-06,0.0,0 STARLINK-4024,1 52599U 22052B   22356.69228080 -.00000266  00000-0  14493-5 0  9995,2 52599  53.2172 144.9114 0003384  57.0881 303.0436 15.08835280 34144,6917.895,95.438,542.101,537.419,0.0
